[{"CCSDS_OMM_VERS":"2.0","COMMENT":"GENERATED VIA SPACE-TRACK.ORG API","CREATION_DATE":"2021-11-04T17:50:53","ORIGINATOR":"18 SPCS","OBJECT_NAME":"TBA - TO BE ASSIGNED","OBJECT_ID":"","CENTER_NAME":"EARTH","REF_FRAME":"TEME","TIME_SYSTEM":"UTC","MEAN_ELEMENT_THEORY":"SGP4","EPOCH":"2021-11-03T19:38:44.672640","MEAN_MOTION":"14.05634558","ECCENTRICITY":"0.04895550","INCLINATION":"65.6637","RA_OF_ASC_NODE":"24.1818","ARG_OF_PERICENTER":"242.9124","MEAN_ANOMALY":"112.1217","EPHEMERIS_TYPE":"0","CLASSIFICATION_TYPE":"U","NORAD_CAT_ID":"82180","ELEMENT_SET_NO":"999","REV_AT_EPOCH":"38834","BSTAR":"0.00163540000000","MEAN_MOTION_DOT":"0.00007914","MEAN_MOTION_DDOT":"0.0000000000000","SEMIMAJOR_AXIS":"7252.486","PERIOD":"102.445","APOAPSIS":"1229.400","PERIAPSIS":"519.302","OBJECT_TYPE":"TBA","RCS_SIZE":null,"COUNTRY_CODE":null,"LAUNCH_DATE":null,"SITE":null,"DECAY_DATE":null,"FILE":"3200777","GP_ID":"188874097","TLE_LINE0":"0 TBA - TO BE ASSIGNED","TLE_LINE1":"1 82180U          21307.81857260 +.00007914 +00000+0 +16354-2 0  9990","TLE_LINE2":"2 82180  65.6637  24.1818 0489555 242.9124 112.1217 14.05634558388340"},{"CCSDS_OMM_VERS":"2.0","COMMENT":"GENERATED VIA SPACE-TRACK.ORG API","CREATION_DATE":"2021-11-03T18:02:46","ORIGINATOR":"18 SPCS","OBJECT_NAME":"TBA - TO BE ASSIGNED","OBJECT_ID":"","CENTER_NAME":"EARTH","REF_FRAME":"TEME","TIME_SYSTEM":"UTC","MEAN_ELEMENT_THEORY":"SGP4","EPOCH":"2021-11-03T09:22:17.339808","MEAN_MOTION":"14.63796712","ECCENTRICITY":"0.00694980","INCLINATION":"70.9412","RA_OF_ASC_NODE":"311.0306","ARG_OF_PERICENTER":"326.5430","MEAN_ANOMALY":"33.1335","EPHEMERIS_TYPE":"0","CLASSIFICATION_TYPE":"U","NORAD_CAT_ID":"82187","ELEMENT_SET_NO":"999","REV_AT_EPOCH":"42293","BSTAR":"0.00277430000000","MEAN_MOTION_DOT":"0.00014974","MEAN_MOTION_DDOT":"0.0000000000000","SEMIMAJOR_AXIS":"7059.078","PERIOD":"98.374","APOAPSIS":"730.002","PERIAPSIS":"631.884","OBJECT_TYPE":"TBA","RCS_SIZE":null,"COUNTRY_CODE":null,"LAUNCH_DATE":null,"SITE":null,"DECAY_DATE":null,"FILE":"3199757","GP_ID":"188806314","TLE_LINE0":"0 TBA - TO BE ASSIGNED","TLE_LINE1":"1 82187U          21307.39047847 +.00014974 +00000+0 +27743-2 0  9990","TLE_LINE2":"2 82187  70.9412 311.0306 0069498 326.5430  33.1335 14.63796712422938"},{"CCSDS_OMM_VERS":"2.0","COMMENT":"GENERATED VIA SPACE-TRACK.ORG API","CREATION_DATE":"2021-11-01T19:35:20","ORIGINATOR":"18 SPCS","OBJECT_NAME":"TBA - TO BE ASSIGNED","OBJECT_ID":"","CENTER_NAME":"EARTH","REF_FRAME":"TEME","TIME_SYSTEM":"UTC","MEAN_ELEMENT_THEORY":"SGP4","EPOCH":"2021-11-01T04:33:31.064832","MEAN_MOTION":"14.33664628","ECCENTRICITY":"0.00155370","INCLINATION":"74.0336","RA_OF_ASC_NODE":"279.1963","ARG_OF_PERICENTER":"117.4315","MEAN_ANOMALY":"242.8419","EPHEMERIS_TYPE":"0","CLASSIFICATION_TYPE":"U","NORAD_CAT_ID":"82189","ELEMENT_SET_NO":"999","REV_AT_EPOCH":"41699","BSTAR":"0.00005711400000","MEAN_MOTION_DOT":"0.00000133","MEAN_MOTION_DDOT":"0.0000000000000","SEMIMAJOR_AXIS":"7157.645","PERIOD":"100.442","APOAPSIS":"790.630","PERIAPSIS":"768.389","OBJECT_TYPE":"TBA","RCS_SIZE":null,"COUNTRY_CODE":null,"LAUNCH_DATE":null,"SITE":null,"DECAY_DATE":null,"FILE":"3196300","GP_ID":"188638453","TLE_LINE0":"0 TBA - TO BE ASSIGNED","TLE_LINE1":"1 82189U          21305.18994288 +.00000133 +00000+0 +57114-4 0  9996","TLE_LINE2":"2 82189  74.0336 279.1963 0015537 117.4315 242.8419 14.33664628416995"},{"CCSDS_OMM_VERS":"2.0","COMMENT":"GENERATED VIA SPACE-TRACK.ORG API","CREATION_DATE":"2021-11-02T18:24:01","ORIGINATOR":"18 SPCS","OBJECT_NAME":"TBA - TO BE ASSIGNED","OBJECT_ID":"","CENTER_NAME":"EARTH","REF_FRAME":"TEME","TIME_SYSTEM":"UTC","MEAN_ELEMENT_THEORY":"SGP4","EPOCH":"2021-11-02T05:11:03.656256","MEAN_MOTION":"13.83591352","ECCENTRICITY":"0.00373620","INCLINATION":"82.9649","RA_OF_ASC_NODE":"280.2924","ARG_OF_PERICENTER":"338.6001","MEAN_ANOMALY":"34.2541","EPHEMERIS_TYPE":"0","CLASSIFICATION_TYPE":"U","NORAD_CAT_ID":"82199","ELEMENT_SET_NO":"999","REV_AT_EPOCH":"40192","BSTAR":"0.00028831000000","MEAN_MOTION_DOT":"0.00000335","MEAN_MOTION_DDOT":"0.0000000000000","SEMIMAJOR_AXIS":"7329.313","PERIOD":"104.077","APOAPSIS":"978.562","PERIAPSIS":"923.794","OBJECT_TYPE":"TBA","RCS_SIZE":null,"COUNTRY_CODE":null,"LAUNCH_DATE":null,"SITE":null,"DECAY_DATE":null,"FILE":"3197730","GP_ID":"188716586","TLE_LINE0":"0 TBA - TO BE ASSIGNED","TLE_LINE1":"1 82199U          21306.21601454 +.00000335 +00000+0 +28831-3 0  9999","TLE_LINE2":"2 82199  82.9649 280.2924 0037362 338.6001  34.2541 13.83591352401923"},{"CCSDS_OMM_VERS":"2.0","COMMENT":"GENERATED VIA SPACE-TRACK.ORG API","CREATION_DATE":"2021-11-04T17:50:53","ORIGINATOR":"18 SPCS","OBJECT_NAME":"TBA - TO BE ASSIGNED","OBJECT_ID":"","CENTER_NAME":"EARTH","REF_FRAME":"TEME","TIME_SYSTEM":"UTC","MEAN_ELEMENT_THEORY":"SGP4","EPOCH":"2021-11-04T02:09:01.655136","MEAN_MOTION":"13.79813481","ECCENTRICITY":"0.06435680","INCLINATION":"62.9927","RA_OF_ASC_NODE":"137.6874","ARG_OF_PERICENTER":"147.9269","MEAN_ANOMALY":"216.2685","EPHEMERIS_TYPE":"0","CLASSIFICATION_TYPE":"U","NORAD_CAT_ID":"82205","ELEMENT_SET_NO":"999","REV_AT_EPOCH":"40012","BSTAR":"0.00094083000000","MEAN_MOTION_DOT":"0.00004780","MEAN_MOTION_DDOT":"0.0000000000000","SEMIMAJOR_AXIS":"7342.685","PERIOD":"104.362","APOAPSIS":"1437.102","PERIAPSIS":"491.999","OBJECT_TYPE":"TBA","RCS_SIZE":null,"COUNTRY_CODE":null,"LAUNCH_DATE":null,"SITE":null,"DECAY_DATE":null,"FILE":"3200777","GP_ID":"188874056","TLE_LINE0":"0 TBA - TO BE ASSIGNED","TLE_LINE1":"1 82205U          21308.08960249 +.00004780 +00000+0 +94083-3 0  9994","TLE_LINE2":"2 82205  62.9927 137.6874 0643568 147.9269 216.2685 13.79813481400122"},{"CCSDS_OMM_VERS":"2.0","COMMENT":"GENERATED VIA SPACE-TRACK.ORG API","CREATION_DATE":"2021-11-01T19:35:20","ORIGINATOR":"18 SPCS","OBJECT_NAME":"TBA - TO BE ASSIGNED","OBJECT_ID":"","CENTER_NAME":"EARTH","REF_FRAME":"TEME","TIME_SYSTEM":"UTC","MEAN_ELEMENT_THEORY":"SGP4","EPOCH":"2021-11-01T04:34:37.018272","MEAN_MOTION":"14.03053686","ECCENTRICITY":"0.00761030","INCLINATION":"99.3917","RA_OF_ASC_NODE":"116.9393","ARG_OF_PERICENTER":"174.5073","MEAN_ANOMALY":"185.6944","EPHEMERIS_TYPE":"0","CLASSIFICATION_TYPE":"U","NORAD_CAT_ID":"82223","ELEMENT_SET_NO":"999","REV_AT_EPOCH":"23754","BSTAR":"0.00089757000000","MEAN_MOTION_DOT":"0.00001384","MEAN_MOTION_DDOT":"0.0000000000000","SEMIMAJOR_AXIS":"7261.377","PERIOD":"102.633","APOAPSIS":"938.503","PERIAPSIS":"827.981","OBJECT_TYPE":"TBA","RCS_SIZE":null,"COUNTRY_CODE":null,"LAUNCH_DATE":null,"SITE":null,"DECAY_DATE":null,"FILE":"3196300","GP_ID":"188638597","TLE_LINE0":"0 TBA - TO BE ASSIGNED","TLE_LINE1":"1 82223U          21305.19070623 +.00001384 +00000+0 +89757-3 0  9990","TLE_LINE2":"2 82223  99.3917 116.9393 0076103 174.5073 185.6944 14.03053686237547"},{"CCSDS_OMM_VERS":"2.0","COMMENT":"GENERATED VIA SPACE-TRACK.ORG API","CREATION_DATE":"2021-10-24T17:19:35","ORIGINATOR":"18 SPCS","OBJECT_NAME":"TBA - TO BE ASSIGNED","OBJECT_ID":"","CENTER_NAME":"EARTH","REF_FRAME":"TEME","TIME_SYSTEM":"UTC","MEAN_ELEMENT_THEORY":"SGP4","EPOCH":"2021-10-24T09:35:17.472192","MEAN_MOTION":"12.41982398","ECCENTRICITY":"0.00033840","INCLINATION":"101.8437","RA_OF_ASC_NODE":"269.2182","ARG_OF_PERICENTER":"20.7973","MEAN_ANOMALY":"132.5839","EPHEMERIS_TYPE":"0","CLASSIFICATION_TYPE":"U","NORAD_CAT_ID":"82227","ELEMENT_SET_NO":"999","REV_AT_EPOCH":"45365","BSTAR":"0.00035261000000","MEAN_MOTION_DOT":"0.00000004","MEAN_MOTION_DDOT":"0.0000000000000","SEMIMAJOR_AXIS":"7876.348","PERIOD":"115.944","APOAPSIS":"1500.878","PERIAPSIS":"1495.547","OBJECT_TYPE":"TBA","RCS_SIZE":null,"COUNTRY_CODE":null,"LAUNCH_DATE":null,"SITE":null,"DECAY_DATE":null,"FILE":"3182196","GP_ID":"188048465","TLE_LINE0":"0 TBA - TO BE ASSIGNED","TLE_LINE1":"1 82227U          21297.39950778 +.00000004 +00000+0 +35261-3 0  9993","TLE_LINE2":"2 82227 101.8437 269.2182 0003384  20.7973 132.5839 12.41982398453654"},{"CCSDS_OMM_VERS":"2.0","COMMENT":"GENERATED VIA SPACE-TRACK.ORG API","CREATION_DATE":"2021-11-03T18:02:46","ORIGINATOR":"18 SPCS","OBJECT_NAME":"TBA - TO BE ASSIGNED","OBJECT_ID":"","CENTER_NAME":"EARTH","REF_FRAME":"TEME","TIME_SYSTEM":"UTC","MEAN_ELEMENT_THEORY":"SGP4","EPOCH":"2021-11-03T05:31:23.625120","MEAN_MOTION":"14.00775817","ECCENTRICITY":"0.00874850","INCLINATION":"98.9573","RA_OF_ASC_NODE":"212.5619","ARG_OF_PERICENTER":"66.8611","MEAN_ANOMALY":"83.2227","EPHEMERIS_TYPE":"0","CLASSIFICATION_TYPE":"U","NORAD_CAT_ID":"82250","ELEMENT_SET_NO":"999","REV_AT_EPOCH":"40578","BSTAR":"0.00094704000000","MEAN_MOTION_DOT":"0.00001418","MEAN_MOTION_DDOT":"0.0000000000000","SEMIMAJOR_AXIS":"7269.247","PERIOD":"102.800","APOAPSIS":"954.707","PERIAPSIS":"827.517","OBJECT_TYPE":"TBA","RCS_SIZE":null,"COUNTRY_CODE":null,"LAUNCH_DATE":null,"SITE":null,"DECAY_DATE":null,"FILE":"3199757","GP_ID":"188806082","TLE_LINE0":"0 TBA - TO BE ASSIGNED","TLE_LINE1":"1 82250U          21307.23013455 +.00001418 +00000+0 +94704-3 0  9993","TLE_LINE2":"2 82250  98.9573 212.5619 0087485  66.8611  83.2227 14.00775817405784"}]